#dP2018  4 15  0  0  0.00000000      96 __u+U IGS08 FIT  IAC
## 1997      0.00000000   900.00000000 58223 0.0000000000000
+   87   C01C02C03C04C05C06C07C08C09C10C11C12C13C14E01E02E03
+        E04E05E07E08E09E11E12E14E18E19E24E26E30G01G02G03G05
+        G06G07G08G09G10G11G12G13G14G15G16G17G18G19G20G21G22
+        G23G24G25G26G27G28G29G30G31G32J01J02J03R01R02R03R04
+        R05R07R08R09R10R11R13R14R15R16R17R18R19R20R21R22R23
+        R24R26  0  0  0  0  0  0  0  0  0  0  0  0  0  0  0
++        12 12 12 12 12  9  8  8  8  8  7  7  8  7  7  7  7
++         7  7  7  7  7  7  7  7  7  7  7  7  7  3  3  3  3
++         3  3  3  3  3  3  3  3  3  3  3  3  3  3  3  3  3
++         3  3  3  3  3  3  3  3  3  3 10 11 11  5  5  5  5
++         5  5  7  5  5  5  5  5  5  5  5  5  5  5  5  5  5
++         6  8  0  0  0  0  0  0  0  0  0  0  0  0  0  0  0
%c M  cc GPS ccc cccc cccc cccc cccc ccccc ccccc ccccc ccccc
%c cc cc ccc ccc cccc cccc cccc cccc ccccc ccccc ccccc ccccc
%f  1.2500000  1.025000000  0.00000000000  0.000000000000000
%f  0.0000000  0.000000000  0.00000000000  0.000000000000000
%i    0    0    0    0      0      0      0      0         0
%i    0    0    0    0      0      0      0      0         0
/* INFORMATION & ANALYSIS CENTER (IAC)            FINAL DATA
/* S/V CLOCKS ARE ALIGNED TO GPS & GLONASS TIME RESPECTIVELY
/* USING THE BROADCAST EPHEMERIS                            
/* PCV:IGS14_1992 OL/AL:FES2004  NONE     YN ORB:CoN CLK:CoN
*  2018 04 15 19 15  0.00000000
PC01 -32320.635097  27070.618997  -1086.520435    615.773045
PC02   4364.810071  41928.983047    886.153829    603.316275
PC03 -14725.114619  39527.047934   -743.737523   -436.024392
PC04 -39589.101103  14456.283302   -515.879884    -32.663603
PC05  21926.807356  36006.526087   1219.283704     55.573071
PC06  -6712.658508  29596.255079  29662.577248    840.360968
PC07 -20790.176664  23419.275387 -28307.842104    187.708634
PC08 -20199.084295  36818.316438  -1884.386709    287.672937
PC09   6455.772440  37692.925240  18273.836696   -217.475111
PC10  -5783.228180  25665.065961 -32895.632445   -160.201307
PC11   3741.246582 -27313.739518   4608.065643   -469.409627
PC12  13439.853470 -14359.045003  19887.612398    415.910527
PC13  -9926.026331  38898.498652  12495.161657   -290.292853
PC14   1864.892911 -16905.658451 -22053.272489    400.201492
PE01  25627.673732 -10744.006107  10188.759888   -322.445754
PE02 -25604.132339  10766.288819 -10226.890016     10.706438
PE03 -14958.544268   8647.019675  24040.635073    -21.381088
PE04  -1575.839921 -23033.258876 -18513.373498    -15.086258
PE05 -22771.726586 -10849.552235  15491.434271    283.895620
PE07  17238.336499  23968.047061   2120.799589     49.699671
PE08   1854.097262  22938.397390  18620.309568   6603.709679
PE09 -17472.981971 -23801.313827  -2150.635520   6819.138713
PE11  -6818.669231 -20496.974505 -20223.871891   1835.057954
PE12   7754.689942 -28264.353034  -4032.831508   3944.994980
PE14  13698.893814  -6543.477817  17795.934544   6598.558747
PE18 -18498.786856  11222.611454 -24350.819479   6279.759554
PE19  16065.311247  -6811.061017 -23904.524073     21.369761
PE24 -14474.292164 -12684.574092  22467.889749   6757.425089
PE26  17040.365735   1341.427403  24172.379716   6046.441801
PE30  -7841.658551  16601.309147 -23229.541241   5917.862938
PG01  11190.159777 -21284.034550 -11078.336802    -40.944701
PG02 -20920.886388  12616.058136  -9546.460292    143.666728
PG03   4282.471377 -14611.525303 -21781.511539     51.273060
PG05 -22708.495386   3923.701685  13286.968562     -9.821975
PG06 -18421.877598   -289.595113 -19104.039288    408.672043
PG07  -3678.019196 -16416.947167  20654.283711    206.999268
PG08   6652.139815 -19545.159220  16673.615609    -97.955461
PG09  -8215.549183 -25160.910854   2087.080641    511.245348
PG10  23519.461254  10989.078809   6033.182256    179.103784
PG11   7953.914933 -25342.106710  -2586.353277   -737.401205
PG12  -7309.052815  12959.334044 -22174.270349    339.396000
PG13 -12842.956660  10671.174694  20543.458567    -95.092013
PG14  15520.585576   5410.247023 -20612.956456    -96.175230
PG15  -5619.401749  20209.402684  15855.076955   -355.427540
PG16  22926.193826   -986.742501  13581.193938     27.598038
PG17 -14298.552857 -14451.885026 -16778.287378   -106.668168
PG18  16384.796188 -20593.913426  -3176.740276     -2.756110
PG19 -15200.978417  -7069.100039 -20840.741043   -443.445950
PG20   3655.985441  16259.173884  20575.576575    505.862184
PG21   7625.269672  14737.919812  21547.823921   -407.020789
PG22  13324.049975 -11981.877368 -19355.958015   -359.021089
PG23    965.638120 -24273.374727  -9935.283153   -217.935229
PG24 -13068.656329  21726.137059  -7522.889100    -48.573183
PG25   8031.931293  16223.544276 -19695.691274   -570.115958
PG26  26037.647642   4209.950102   3683.127244   -181.567066
PG27  13640.014060  -6141.671502  21858.611311    370.208184
PG28 -20463.800449 -14426.741232   9410.011562    706.595565
PG29   4372.594761  26195.724396   -859.843856    465.726909
PG30 -12073.083339 -10043.742796  21432.320181     84.372859
PG31  19571.861427   -858.087856 -18085.734901    128.260132
PG32  15382.197505  14743.765013 -15876.946789   -520.295934
PJ01 -27514.802186  22795.983600  27472.182988   -303.405130
PJ02 -35644.305295  21271.358231  -2583.672442      0.882241
PJ03 -20185.626473  24183.286327 -23433.217222    -16.159225
PR01  20601.211735  13526.742601  -6544.015492     24.862465
PR02  14098.843089   -926.298107 -21208.894589    305.003320
PR03   -458.971534 -13951.077145 -21298.336576    129.540287
PR04 -15075.622128 -18697.766387  -8549.691510    257.287687
PR05 -20677.316493 -12471.754501   8230.197748   -283.803030
PR07    845.107322  14233.120106  21196.572756    -35.216865
PR08  14599.283354  18785.829726   9256.758946    -13.807427
PR09 -23641.817356   9165.982425  -3064.674193     34.385124
PR10 -12373.918210  12825.131770 -18311.972268     22.569422
PR11   6690.980144   9280.162382 -22786.918827    -26.522068
PR13  23344.621160  -9687.379220   3406.155612     -9.459994
PR14  12421.482720 -13038.175954  18066.622661     26.368292
PR15  -2481.455664 -10401.079695  23160.643901     -8.789935
PR16 -20876.811339   -118.583381  14546.324102     90.307422
PR17   7094.007089 -24132.927391   4328.866740    124.973686
PR18  -1170.828249 -22200.208530 -12427.293257    192.018757
PR19  -8676.780584  -7957.065536 -22624.127927    -50.096754
PR20 -11672.686285  12269.959941 -19089.122360   -334.481134
PR21  -6915.195336  24213.681503  -4016.195540     20.662241
PR22   2035.268916  21256.544266  14066.393007    -35.158290
PR23   9931.180301   3923.670241  23161.474275    147.923493
PR24  11410.753102 -13183.262936  18587.482242   -165.048312
PR26 -11496.887885  11913.509263 -19385.069611     12.827641
EOF
